start=new Date('2023-03-10T00:00:00.000Z').valueOf();
sats=[{"INCLINATION":"53.0504","TIME_SYSTEM":"UTC","CLASSIFICATION_TYPE":"U","EPOCH":"2023-03-09T21:48:43.839072","PERIAPSIS":"546.451","BSTAR":"0.00113200000000","FILE":"3855951","MEAN_MOTION":"15.06412475","EPHEMERIS_TYPE":"0","OBJECT_NAME":"STARLINK-2002","APOAPSIS":"547.900","OBJECT_TYPE":"PAYLOAD","REF_FRAME":"TEME","GP_ID":"227766876","TLE_LINE2":"2 47597  53.0504 280.7729 0001046  86.2820 273.8288 15.06412475115351","SITE":"AFETR","ECCENTRICITY":"0.00010460","TLE_LINE1":"1 47597U 21009BB  23068.90884073  .00016625  00000-0  11320-2 0  9991","SEMIMAJOR_AXIS":"6925.310","OBJECT_ID":"2021-009BB","MEAN_ANOMALY":"273.8288","CENTER_NAME":"EARTH","ARG_OF_PERICENTER":"86.2820","DECAY_DATE":null,"MEAN_MOTION_DDOT":"0.0000000000000","NORAD_CAT_ID":"47597","ELEMENT_SET_NO":"999","RCS_SIZE":"LARGE","MEAN_MOTION_DOT":"0.00016625","RA_OF_ASC_NODE":"280.7729","LAUNCH_DATE":"2021-02-04","REV_AT_EPOCH":"11535","COUNTRY_CODE":"US","MEAN_ELEMENT_THEORY":"SGP4","PERIOD":"95.591"},{"TLE_LINE1":"1 47598U 21009BC  23068.78627788  .00002459  00000-0  18388-3 0  9998","SEMIMAJOR_AXIS":"6925.337","SITE":"AFETR","ECCENTRICITY":"0.00013560","OBJECT_TYPE":"PAYLOAD","TLE_LINE2":"2 47598  53.0492 251.3196 0001356  83.6488 276.4655 15.06403914115765","GP_ID":"227767623","REF_FRAME":"TEME","EPHEMERIS_TYPE":"0","MEAN_MOTION":"15.06403914","FILE":"3855951","APOAPSIS":"548.141","OBJECT_NAME":"STARLINK-2003","CLASSIFICATION_TYPE":"U","TIME_SYSTEM":"UTC","INCLINATION":"53.0492","BSTAR":"0.00018388000000","EPOCH":"2023-03-09T18:52:14.408832","PERIAPSIS":"546.262","COUNTRY_CODE":"US","LAUNCH_DATE":"2021-02-04","REV_AT_EPOCH":"11576","PERIOD":"95.592","MEAN_ELEMENT_THEORY":"SGP4","RA_OF_ASC_NODE":"251.3196","MEAN_MOTION_DOT":"0.00002459","RCS_SIZE":"LARGE","ELEMENT_SET_NO":"999","NORAD_CAT_ID":"47598","MEAN_MOTION_DDOT":"0.0000000000000","DECAY_DATE":null,"OBJECT_ID":"2021-009BC","CENTER_NAME":"EARTH","ARG_OF_PERICENTER":"83.6488","MEAN_ANOMALY":"276.4655"},{"REF_FRAME":"TEME","TLE_LINE2":"2 47599  53.0516 241.3624 0001321  89.6414 270.4726 15.06391864115892","GP_ID":"227767377","OBJECT_TYPE":"PAYLOAD","SITE":"AFETR","ECCENTRICITY":"0.00013210","TLE_LINE1":"1 47599U 21009BD  23068.77615249  .00000506  00000-0  52872-4 0  9995","SEMIMAJOR_AXIS":"6925.373","EPOCH":"2023-03-09T18:37:39.575136","PERIAPSIS":"546.324","BSTAR":"0.00005287200000","INCLINATION":"53.0516","TIME_SYSTEM":"UTC","CLASSIFICATION_TYPE":"U","OBJECT_NAME":"STARLINK-2004","APOAPSIS":"548.153","FILE":"3855951","MEAN_MOTION":"15.06391864","EPHEMERIS_TYPE":"0","RCS_SIZE":"LARGE","RA_OF_ASC_NODE":"241.3624","MEAN_MOTION_DOT":"0.00000506","MEAN_ELEMENT_THEORY":"SGP4","PERIOD":"95.593","LAUNCH_DATE":"2021-02-04","REV_AT_EPOCH":"11589","COUNTRY_CODE":"US","MEAN_ANOMALY":"270.4726","ARG_OF_PERICENTER":"89.6414","CENTER_NAME":"EARTH","OBJECT_ID":"2021-009BD","DECAY_DATE":null,"NORAD_CAT_ID":"47599","MEAN_MOTION_DDOT":"0.0000000000000","ELEMENT_SET_NO":"999"},{"TLE_LINE1":"1 47600U 21009BE  23068.86826903 -.00009119  00000-0 -59437-3 0  9993","SEMIMAJOR_AXIS":"6925.402","SITE":"AFETR","ECCENTRICITY":"0.00007180","OBJECT_TYPE":"PAYLOAD","TLE_LINE2":"2 47600  53.0518 240.9199 0000718  97.8523 262.2547 15.06382700115912","GP_ID":"227766127","REF_FRAME":"TEME","FILE":"3855951","MEAN_MOTION":"15.06382700","EPHEMERIS_TYPE":"0","APOAPSIS":"547.764","OBJECT_NAME":"STARLINK-2005","CLASSIFICATION_TYPE":"U","TIME_SYSTEM":"UTC","INCLINATION":"53.0518","BSTAR":"-0.00059437000000","PERIAPSIS":"546.769","EPOCH":"2023-03-09T20:50:18.444192","COUNTRY_CODE":"US","LAUNCH_DATE":"2021-02-04","REV_AT_EPOCH":"11591","MEAN_ELEMENT_THEORY":"SGP4","PERIOD":"95.593","MEAN_MOTION_DOT":"-0.00009119","RA_OF_ASC_NODE":"240.9199","RCS_SIZE":"LARGE","MEAN_MOTION_DDOT":"0.0000000000000","NORAD_CAT_ID":"47600","ELEMENT_SET_NO":"999","DECAY_DATE":null,"OBJECT_ID":"2021-009BE","ARG_OF_PERICENTER":"97.8523","CENTER_NAME":"EARTH","MEAN_ANOMALY":"262.2547"},{"RCS_SIZE":"LARGE","RA_OF_ASC_NODE":"245.8061","MEAN_MOTION_DOT":"0.00002726","REV_AT_EPOCH":"11574","LAUNCH_DATE":"2021-02-04","COUNTRY_CODE":"US","PERIOD":"95.593","MEAN_ELEMENT_THEORY":"SGP4","OBJECT_ID":"2021-009BF","MEAN_ANOMALY":"270.8943","CENTER_NAME":"EARTH","ARG_OF_PERICENTER":"89.2194","DECAY_DATE":null,"ELEMENT_SET_NO":"999","NORAD_CAT_ID":"47601","MEAN_MOTION_DDOT":"0.0000000000000","OBJECT_TYPE":"PAYLOAD","REF_FRAME":"TEME","GP_ID":"227721639","TLE_LINE2":"2 47601  53.0527 245.8061 0001292  89.2194 270.8943 15.06391300115744","SITE":"AFETR","ECCENTRICITY":"0.00012920","TLE_LINE1":"1 47601U 21009BF  23067.78462806  .00002726  00000-0  20186-3 0  9996","SEMIMAJOR_AXIS":"6925.375","INCLINATION":"53.0527","CLASSIFICATION_TYPE":"U","TIME_SYSTEM":"UTC","PERIAPSIS":"546.345","EPOCH":"2023-03-08T18:49:51.864384","BSTAR":"0.00020186000000","EPHEMERIS_TYPE":"0","MEAN_MOTION":"15.06391300","FILE":"3855077","OBJECT_NAME":"STARLINK-2006","APOAPSIS":"548.135"},{"OBJECT_TYPE":"PAYLOAD","GP_ID":"227767123","TLE_LINE2":"2 47602  53.0538 251.2568 0001621  93.6590 266.4584 15.06392149115750","REF_FRAME":"TEME","TLE_LINE1":"1 47602U 21009BG  23068.80103558  .00005947  00000-0  41789-3 0  9997","SEMIMAJOR_AXIS":"6925.373","SITE":"AFETR","ECCENTRICITY":"0.00016210","TIME_SYSTEM":"UTC","CLASSIFICATION_TYPE":"U","INCLINATION":"53.0538","BSTAR":"0.00041789000000","EPOCH":"2023-03-09T19:13:29.474112","PERIAPSIS":"546.115","EPHEMERIS_TYPE":"0","MEAN_MOTION":"15.06392149","FILE":"3855951","APOAPSIS":"548.360","OBJECT_NAME":"STARLINK-2007","MEAN_MOTION_DOT":"0.00005947","RA_OF_ASC_NODE":"251.2568","RCS_SIZE":"LARGE","COUNTRY_CODE":"US","REV_AT_EPOCH":"11575","LAUNCH_DATE":"2021-02-04","PERIOD":"95.593","MEAN_ELEMENT_THEORY":"SGP4","OBJECT_ID":"2021-009BG","CENTER_NAME":"EARTH","ARG_OF_PERICENTER":"93.6590","MEAN_ANOMALY":"266.4584","ELEMENT_SET_NO":"999","MEAN_MOTION_DDOT":"0.0000000000000","NORAD_CAT_ID":"47602","DECAY_DATE":null},{"APOAPSIS":"547.981","OBJECT_NAME":"STARLINK-2008","EPHEMERIS_TYPE":"0","MEAN_MOTION":"15.06409996","FILE":"3855951","BSTAR":"0.00076624000000","EPOCH":"2023-03-09T21:06:15.737184","PERIAPSIS":"546.384","CLASSIFICATION_TYPE":"U","TIME_SYSTEM":"UTC","INCLINATION":"53.0519","SEMIMAJOR_AXIS":"6925.318","TLE_LINE1":"1 47603U 21009BH  23068.87934881  .00011153  00000-0  76624-3 0  9998","SITE":"AFETR","ECCENTRICITY":"0.00011530","TLE_LINE2":"2 47603  53.0519 280.9056 0001153  84.0053 276.1067 15.06409996115347","GP_ID":"227767878","REF_FRAME":"TEME","OBJECT_TYPE":"PAYLOAD","ELEMENT_SET_NO":"999","NORAD_CAT_ID":"47603","MEAN_MOTION_DDOT":"0.0000000000000","DECAY_DATE":null,"ARG_OF_PERICENTER":"84.0053","CENTER_NAME":"EARTH","MEAN_ANOMALY":"276.1067","OBJECT_ID":"2021-009BH","PERIOD":"95.592","MEAN_ELEMENT_THEORY":"SGP4","COUNTRY_CODE":"US","LAUNCH_DATE":"2021-02-04","REV_AT_EPOCH":"11534","RA_OF_ASC_NODE":"280.9056","MEAN_MOTION_DOT":"0.00011153","RCS_SIZE":"LARGE"},{"OBJECT_ID":"2021-009BJ","MEAN_ANOMALY":"268.3952","ARG_OF_PERICENTER":"91.7146","CENTER_NAME":"EARTH","DECAY_DATE":null,"ELEMENT_SET_NO":"999","MEAN_MOTION_DDOT":"0.0000000000000","NORAD_CAT_ID":"47604","RCS_SIZE":"LARGE","MEAN_MOTION_DOT":"0.00007556","RA_OF_ASC_NODE":"251.2213","LAUNCH_DATE":"2021-02-04","REV_AT_EPOCH":"11576","COUNTRY_CODE":"US","PERIOD":"95.593","MEAN_ELEMENT_THEORY":"SGP4","INCLINATION":"53.0529","TIME_SYSTEM":"UTC","CLASSIFICATION_TYPE":"U","EPOCH":"2023-03-09T19:24:04.687776","PERIAPSIS":"546.608","BSTAR":"0.00052589000000","EPHEMERIS_TYPE":"0","FILE":"3855951","MEAN_MOTION":"15.06381006","OBJECT_NAME":"STARLINK-2021","APOAPSIS":"547.936","OBJECT_TYPE":"PAYLOAD","REF_FRAME":"TEME","TLE_LINE2":"2 47604  53.0529 251.2213 0000959  91.7146 268.3952 15.06381006115769","GP_ID":"227766628","ECCENTRICITY":"0.00009590","SITE":"AFETR","SEMIMAJOR_AXIS":"6925.407","TLE_LINE1":"1 47604U 21009BJ  23068.80838759  .00007556  00000-0  52589-3 0  9995"},{"PERIAPSIS":"546.477","EPOCH":"2023-03-09T21:04:57.223776","BSTAR":"0.00024802000000","INCLINATION":"53.0504","TIME_SYSTEM":"UTC","CLASSIFICATION_TYPE":"U","OBJECT_NAME":"STARLINK-2024","APOAPSIS":"548.002","FILE":"3855951","MEAN_MOTION":"15.06391426","EPHEMERIS_TYPE":"0","REF_FRAME":"TEME","GP_ID":"227766877","TLE_LINE2":"2 47606  53.0504 250.9042 0001101  74.0428 286.0682 15.06391426115772","OBJECT_TYPE":"PAYLOAD","ECCENTRICITY":"0.00011010","SITE":"AFETR","SEMIMAJOR_AXIS":"6925.375","TLE_LINE1":"1 47606U 21009BL  23068.87844009  .00003414  00000-0  24802-3 0  9995","MEAN_ANOMALY":"286.0682","CENTER_NAME":"EARTH","ARG_OF_PERICENTER":"74.0428","OBJECT_ID":"2021-009BL","DECAY_DATE":null,"NORAD_CAT_ID":"47606","MEAN_MOTION_DDOT":"0.0000000000000","ELEMENT_SET_NO":"999","RCS_SIZE":"LARGE","RA_OF_ASC_NODE":"250.9042","MEAN_MOTION_DOT":"0.00003414","MEAN_ELEMENT_THEORY":"SGP4","PERIOD":"95.593","LAUNCH_DATE":"2021-02-04","REV_AT_EPOCH":"11577","COUNTRY_CODE":"US"},{"RCS_SIZE":"LARGE","RA_OF_ASC_NODE":"251.3169","MEAN_MOTION_DOT":"0.00008447","LAUNCH_DATE":"2021-02-04","REV_AT_EPOCH":"11575","COUNTRY_CODE":"US","PERIOD":"95.591","MEAN_ELEMENT_THEORY":"SGP4","OBJECT_ID":"2021-009BM","MEAN_ANOMALY":"279.7317","CENTER_NAME":"EARTH","ARG_OF_PERICENTER":"80.3850","DECAY_DATE":null,"ELEMENT_SET_NO":"999","NORAD_CAT_ID":"47607","MEAN_MOTION_DDOT":"0.0000000000000","OBJECT_TYPE":"PAYLOAD","REF_FRAME":"TEME","TLE_LINE2":"2 47607  53.0510 251.3169 0001579  80.3850 279.7317 15.06414284115753","GP_ID":"227767624","SITE":"AFETR","ECCENTRICITY":"0.00015790","SEMIMAJOR_AXIS":"6925.305","TLE_LINE1":"1 47607U 21009BM  23068.78996576  .00008447  00000-0  58507-3 0  9993","INCLINATION":"53.0510","CLASSIFICATION_TYPE":"U","TIME_SYSTEM":"UTC","PERIAPSIS":"546.076","EPOCH":"2023-03-09T18:57:33.041664","BSTAR":"0.00058507000000","EPHEMERIS_TYPE":"0","FILE":"3855951","MEAN_MOTION":"15.06414284","OBJECT_NAME":"STARLINK-2025","APOAPSIS":"548.263"}];
